{
  "type": "FeatureCollection",
  "features": [
    {
      "type": "Feature",
      "properties": {
        "norad_id": 40730,
        "name": "GPS BIIF-10 (PRN 08)",
        "group": "gps-ops",
        "lat": 5.8465617100138845,
        "lon": -81.24425125761806,
        "alt_km": 19902.880097961293,
        "timestamp": "2025-12-18T17:50:15.216251+00:00",
        "meta_object_name": "GPS BIIF-10 (PRN 08)",
        "meta_object_id": "2015-033A",
        "meta_epoch": "2025-12-17T17:40:14.806272",
        "meta_mean_motion": 2.00565457,
        "meta_eccentricity": 0.01112676,
        "meta_inclination": 54.1263,
        "meta_ra_of_asc_node": 274.5673,
        "meta_arg_of_pericenter": 26.9306,
        "meta_mean_anomaly": 333.6659,
        "meta_ephemeris_type": 0,
        "meta_classification_type": "U",
        "meta_norad_cat_id": 40730,
        "meta_element_set_no": 999,
        "meta_rev_at_epoch": 7635,
        "meta_bstar": 0,
        "meta_mean_motion_dot": -4.1e-07,
        "meta_mean_motion_ddot": 0,
        "tle_line1": "1 40730U 15033A   25351.73628248 -.00000041  00000+0  00000+0 0  9996",
        "tle_line2": "2 40730  54.1263 274.5673 0111267  26.9306 333.6659  2.00565457 76355"
      },
      "geometry": {
        "type": "Point",
        "coordinates": [
          -81.24425125761806,
          5.8465617100138845
        ]
      }
    },
    {
      "type": "Feature",
      "properties": {
        "norad_id": 41019,
        "name": "GPS BIIF-11 (PRN 10)",
        "group": "gps-ops",
        "lat": -29.10500458899068,
        "lon": 16.46024433762556,
        "alt_km": 20204.958904132924,
        "timestamp": "2025-12-18T17:50:15.216262+00:00",
        "meta_object_name": "GPS BIIF-11 (PRN 10)",
        "meta_object_id": "2015-062A",
        "meta_epoch": "2025-12-18T07:03:43.994016",
        "meta_mean_motion": 2.0056722,
        "meta_eccentricity": 0.01109639,
        "meta_inclination": 56.8362,
        "meta_ra_of_asc_node": 37.7874,
        "meta_arg_of_pericenter": 230.0873,
        "meta_mean_anomaly": 128.9937,
        "meta_ephemeris_type": 0,
        "meta_classification_type": "U",
        "meta_norad_cat_id": 41019,
        "meta_element_set_no": 999,
        "meta_rev_at_epoch": 7420,
        "meta_bstar": 0,
        "meta_mean_motion_dot": -6.9e-07,
        "meta_mean_motion_ddot": 0,
        "tle_line1": "1 41019U 15062A   25352.29425919 -.00000069  00000+0  00000+0 0  9991",
        "tle_line2": "2 41019  56.8362  37.7874 0110963 230.0873 128.9937  2.00567220 74202"
      },
      "geometry": {
        "type": "Point",
        "coordinates": [
          16.46024433762556,
          -29.10500458899068
        ]
      }
    },
    {
      "type": "Feature",
      "properties": {
        "norad_id": 41328,
        "name": "GPS BIIF-12 (PRN 32)",
        "group": "gps-ops",
        "lat": -54.96894656044369,
        "lon": -3.9515916400639584,
        "alt_km": 19958.144214562064,
        "timestamp": "2025-12-18T17:50:15.216273+00:00",
        "meta_object_name": "GPS BIIF-12 (PRN 32)",
        "meta_object_id": "2016-007A",
        "meta_epoch": "2025-12-17T21:04:45.121728",
        "meta_mean_motion": 2.00560498,
        "meta_eccentricity": 0.0092429,
        "meta_inclination": 55.409,
        "meta_ra_of_asc_node": 96.6531,
        "meta_arg_of_pericenter": 243.6958,
        "meta_mean_anomaly": 115.3363,
        "meta_ephemeris_type": 0,
        "meta_classification_type": "U",
        "meta_norad_cat_id": 41328,
        "meta_element_set_no": 999,
        "meta_rev_at_epoch": 7220,
        "meta_bstar": 0,
        "meta_mean_motion_dot": -3.7e-07,
        "meta_mean_motion_ddot": 0,
        "tle_line1": "1 41328U 16007A   25351.87830002 -.00000037  00000+0  00000+0 0  9995",
        "tle_line2": "2 41328  55.4090  96.6531 0092429 243.6958 115.3363  2.00560498 72203"
      },
      "geometry": {
        "type": "Point",
        "coordinates": [
          -3.9515916400639584,
          -54.96894656044369
        ]
      }
    },
    {
      "type": "Feature",
      "properties": {
        "norad_id": 43873,
        "name": "GPS BIII-1  (PRN 04)",
        "group": "gps-ops",
        "lat": 18.131609412719893,
        "lon": -93.65808315806407,
        "alt_km": 20101.671497825522,
        "timestamp": "2025-12-18T17:50:15.216285+00:00",
        "meta_object_name": "GPS BIII-1  (PRN 04)",
        "meta_object_id": "2018-109A",
        "meta_epoch": "2025-12-15T18:29:34.483200",
        "meta_mean_motion": 2.00553802,
        "meta_eccentricity": 0.00374359,
        "meta_inclination": 55.5688,
        "meta_ra_of_asc_node": 99.4273,
        "meta_arg_of_pericenter": 195.145,
        "meta_mean_anomaly": 336.5518,
        "meta_ephemeris_type": 0,
        "meta_classification_type": "U",
        "meta_norad_cat_id": 43873,
        "meta_element_set_no": 999,
        "meta_rev_at_epoch": 5139,
        "meta_bstar": 0,
        "meta_mean_motion_dot": -3.2e-07,
        "meta_mean_motion_ddot": 0,
        "tle_line1": "1 43873U 18109A   25349.77053800 -.00000032  00000+0  00000+0 0  9991",
        "tle_line2": "2 43873  55.5688  99.4273 0037435 195.1450 336.5518  2.00553802 51399"
      },
      "geometry": {
        "type": "Point",
        "coordinates": [
          -93.65808315806407,
          18.131609412719893
        ]
      }
    },
    {
      "type": "Feature",
      "properties": {
        "norad_id": 44506,
        "name": "GPS BIII-2  (PRN 18)",
        "group": "gps-ops",
        "lat": 42.5016021385395,
        "lon": 16.98804797364102,
        "alt_km": 20299.736651789543,
        "timestamp": "2025-12-18T17:50:15.216296+00:00",
        "meta_object_name": "GPS BIII-2  (PRN 18)",
        "meta_object_id": "2019-056A",
        "meta_epoch": "2025-12-18T07:32:42.973728",
        "meta_mean_motion": 2.00566635,
        "meta_eccentricity": 0.00577192,
        "meta_inclination": 55.7194,
        "meta_ra_of_asc_node": 338.3313,
        "meta_arg_of_pericenter": 198.5145,
        "meta_mean_anomaly": 267.0868,
        "meta_ephemeris_type": 0,
        "meta_classification_type": "U",
        "meta_norad_cat_id": 44506,
        "meta_element_set_no": 999,
        "meta_rev_at_epoch": 4644,
        "meta_bstar": 0,
        "meta_mean_motion_dot": -8.5e-07,
        "meta_mean_motion_ddot": 0,
        "tle_line1": "1 44506U 19056A   25352.31438627 -.00000085  00000+0  00000+0 0  9993",
        "tle_line2": "2 44506  55.7194 338.3313 0057719 198.5145 267.0868  2.00566635 46446"
      },
      "geometry": {
        "type": "Point",
        "coordinates": [
          16.98804797364102,
          42.5016021385395
        ]
      }
    },
    {
      "type": "Feature",
      "properties": {
        "norad_id": 45854,
        "name": "GPS BIII-3  (PRN 23)",
        "group": "gps-ops",
        "lat": -0.4645887071859818,
        "lon": 35.66550510081117,
        "alt_km": 20329.481821159643,
        "timestamp": "2025-12-18T17:50:15.216307+00:00",
        "meta_object_name": "GPS BIII-3  (PRN 23)",
        "meta_object_id": "2020-041A",
        "meta_epoch": "2025-12-18T05:27:58.178880",
        "meta_mean_motion": 2.00562003,
        "meta_eccentricity": 0.0060605,
        "meta_inclination": 56.5506,
        "meta_ra_of_asc_node": 35.9719,
        "meta_arg_of_pericenter": 203.6022,
        "meta_mean_anomaly": 143.4254,
        "meta_ephemeris_type": 0,
        "meta_classification_type": "U",
        "meta_norad_cat_id": 45854,
        "meta_element_set_no": 999,
        "meta_rev_at_epoch": 4040,
        "meta_bstar": 0,
        "meta_mean_motion_dot": -7e-07,
        "meta_mean_motion_ddot": 0,
        "tle_line1": "1 45854U 20041A   25352.22775670 -.00000070  00000+0  00000+0 0  9992",
        "tle_line2": "2 45854  56.5506  35.9719 0060605 203.6022 143.4254  2.00562003 40400"
      },
      "geometry": {
        "type": "Point",
        "coordinates": [
          35.66550510081117,
          -0.4645887071859818
        ]
      }
    },
    {
      "type": "Feature",
      "properties": {
        "norad_id": 46826,
        "name": "GPS BIII-4  (PRN 14)",
        "group": "gps-ops",
        "lat": -23.200591865951456,
        "lon": -160.02871411953956,
        "alt_km": 20288.8610988044,
        "timestamp": "2025-12-18T17:50:15.216319+00:00",
        "meta_object_name": "GPS BIII-4  (PRN 14)",
        "meta_object_id": "2020-078A",
        "meta_epoch": "2025-12-16T01:06:13.902336",
        "meta_mean_motion": 2.00566891,
        "meta_eccentricity": 0.00647554,
        "meta_inclination": 54.0145,
        "meta_ra_of_asc_node": 218.2068,
        "meta_arg_of_pericenter": 203.3828,
        "meta_mean_anomaly": 339.3936,
        "meta_ephemeris_type": 0,
        "meta_classification_type": "U",
        "meta_norad_cat_id": 46826,
        "meta_element_set_no": 999,
        "meta_rev_at_epoch": 3783,
        "meta_bstar": 0,
        "meta_mean_motion_dot": 6.7e-07,
        "meta_mean_motion_ddot": 0,
        "tle_line1": "1 46826U 20078A   25350.04599424  .00000067  00000+0  00000+0 0  9996",
        "tle_line2": "2 46826  54.0145 218.2068 0064755 203.3828 339.3936  2.00566891 37831"
      },
      "geometry": {
        "type": "Point",
        "coordinates": [
          -160.02871411953956,
          -23.200591865951456
        ]
      }
    }
  ]
}